COLIBRI-S (RS67S)       
1 61746U 24199M   25124.16122133  .00016235  00000+0  53224-3 0  9997
2 61746  97.3622 353.0534 0010962 319.7469  40.2959 15.31652016 74511
HORS 3 (RS81S)          
1 61753U 24199U   25124.18209253  .00020052  00000+0  63463-3 0  9994
2 61753  97.3591 353.1105 0009434 328.4832  31.5844 15.32753077 74529
HORS 4 (RS82S)          
1 61754U 24199V   25124.20216281  .00021521  00000+0  66611-3 0  9997
2 61754  97.3587 353.2294 0009383 329.0295  31.0393 15.33450083 74535
HORIZON (RS59S)         
1 61757U 24199Y   25124.19517301  .00029611  00000+0  83981-3 0  9992
2 61757  97.3611 353.6030 0009391 315.0955  44.9529 15.36143997 74557
SIT-2086                
1 61764U 24199AF  25124.18174485  .00026355  00000+0  78660-3 0  9991
2 61764  97.3593 353.4155 0007752 329.3613  30.7176 15.34576883 71389
MORDOVIA-IOT (RS50S)    
1 61765U 24199AG  25124.20350896  .00039746  00000+0  10121-2 0  9992
2 61765  97.3593 354.0355 0008427 310.1675  49.8832 15.39426335 71432
RUZAEVKA 390 (RS44S)    
1 61766U 24199AH  25124.18826662  .00036463  00000+0  96313-3 0  9990
2 61766  97.3594 353.9000 0008528 310.6297  49.4206 15.38318336 71426
HYPERVIEW 1G (RS66S)    
1 61772U 24199AP  25124.22978674  .00026036  00000+0  79019-3 0  9992
2 61772  97.3589 353.1924 0012536 329.4730  30.5782 15.34000982 71384
ALTAIR (RS65S)          
1 61779U 24199AW  25124.20947470  .00011467  00000+0  41682-3 0  9994
2 61779  97.3611 352.4925 0014629 332.6529  27.3939 15.28328193 74489
ASRTU-1 (AO-123)        
1 61781U 24199AY  25124.17187187  .00009570  00000+0  35340-3 0  9990
2 61781  97.3600 352.3808 0014975 332.9224  27.1233 15.27853993 71323
TUSUR GO (RS78S)        
1 61782U 24199AZ  25124.16621806  .00031050  00000+0  91614-3 0  9995
2 61782  97.3584 353.1248 0012931 329.2677  30.7808 15.34852484 71378
SAMSAT-IONOSPHERE (RS7*)
1 61784U 24199BB  25124.21133686  .00020552  00000+0  66012-3 0  9996
2 61784  97.3595 352.9253 0013840 330.4054  29.6403 15.32224044 74518
RTU MIREA 1 (RS51S)     
1 61785U 24199BC  25124.19310768  .00022995  00000+0  72956-3 0  9999
2 61785  97.3593 352.9480 0013579 329.7767  30.2690 15.32599589 71365
HADES-R                 
1 62690U 25009CK  25123.73747569  .00051989  00000+0  19798-2 0  9997
2 62690  97.4094 204.7588 0003990 195.2569 164.8550 15.26542062 16526
