[
  {
    "OBJECT_NAME": "COLIBRI-S (RS67S)",
    "OBJECT_ID": "2024-199M",
    "EPOCH": "2025-05-04T03:52:09.522912",
    "MEAN_MOTION": 15.31652016,
    "ECCENTRICITY": 0.0010962,
    "INCLINATION": 97.3622,
    "RA_OF_ASC_NODE": 353.0534,
    "ARG_OF_PERICENTER": 319.7469,
    "MEAN_ANOMALY": 40.2959,
    "EPHEMERIS_TYPE": 0,
    "CLASSIFICATION_TYPE": "U",
    "NORAD_CAT_ID": 61746,
    "ELEMENT_SET_NO": 999,
    "REV_AT_EPOCH": 7451,
    "BSTAR": 0.00053224,
    "MEAN_MOTION_DOT": 0.00016235,
    "MEAN_MOTION_DDOT": 0
  },
  {
    "OBJECT_NAME": "HORS 3 (RS81S)",
    "OBJECT_ID": "2024-199U",
    "EPOCH": "2025-05-04T04:22:12.794592",
    "MEAN_MOTION": 15.32753077,
    "ECCENTRICITY": 0.0009434,
    "INCLINATION": 97.3591,
    "RA_OF_ASC_NODE": 353.1105,
    "ARG_OF_PERICENTER": 328.4832,
    "MEAN_ANOMALY": 31.5844,
    "EPHEMERIS_TYPE": 0,
    "CLASSIFICATION_TYPE": "U",
    "NORAD_CAT_ID": 61753,
    "ELEMENT_SET_NO": 999,
    "REV_AT_EPOCH": 7452,
    "BSTAR": 0.00063463,
    "MEAN_MOTION_DOT": 0.00020052,
    "MEAN_MOTION_DDOT": 0
  },
  {
    "OBJECT_NAME": "HORS 4 (RS82S)",
    "OBJECT_ID": "2024-199V",
    "EPOCH": "2025-05-04T04:51:06.866784",
    "MEAN_MOTION": 15.33450083,
    "ECCENTRICITY": 0.0009383,
    "INCLINATION": 97.3587,
    "RA_OF_ASC_NODE": 353.2294,
    "ARG_OF_PERICENTER": 329.0295,
    "MEAN_ANOMALY": 31.0393,
    "EPHEMERIS_TYPE": 0,
    "CLASSIFICATION_TYPE": "U",
    "NORAD_CAT_ID": 61754,
    "ELEMENT_SET_NO": 999,
    "REV_AT_EPOCH": 7453,
    "BSTAR": 0.00066611,
    "MEAN_MOTION_DOT": 0.00021521,
    "MEAN_MOTION_DDOT": 0
  },
  {
    "OBJECT_NAME": "HORIZON (RS59S)",
    "OBJECT_ID": "2024-199Y",
    "EPOCH": "2025-05-04T04:41:02.948064",
    "MEAN_MOTION": 15.36143997,
    "ECCENTRICITY": 0.0009391,
    "INCLINATION": 97.3611,
    "RA_OF_ASC_NODE": 353.603,
    "ARG_OF_PERICENTER": 315.0955,
    "MEAN_ANOMALY": 44.9529,
    "EPHEMERIS_TYPE": 0,
    "CLASSIFICATION_TYPE": "U",
    "NORAD_CAT_ID": 61757,
    "ELEMENT_SET_NO": 999,
    "REV_AT_EPOCH": 7455,
    "BSTAR": 0.00083981,
    "MEAN_MOTION_DOT": 0.00029611,
    "MEAN_MOTION_DDOT": 0
  },
  {
    "OBJECT_NAME": "SIT-2086",
    "OBJECT_ID": "2024-199AF",
    "EPOCH": "2025-05-04T04:21:42.755040",
    "MEAN_MOTION": 15.34576883,
    "ECCENTRICITY": 0.0007752,
    "INCLINATION": 97.3593,
    "RA_OF_ASC_NODE": 353.4155,
    "ARG_OF_PERICENTER": 329.3613,
    "MEAN_ANOMALY": 30.7176,
    "EPHEMERIS_TYPE": 0,
    "CLASSIFICATION_TYPE": "U",
    "NORAD_CAT_ID": 61764,
    "ELEMENT_SET_NO": 999,
    "REV_AT_EPOCH": 7138,
    "BSTAR": 0.0007866,
    "MEAN_MOTION_DOT": 0.00026355,
    "MEAN_MOTION_DDOT": 0
  },
  {
    "OBJECT_NAME": "MORDOVIA-IOT (RS50S)",
    "OBJECT_ID": "2024-199AG",
    "EPOCH": "2025-05-04T04:53:03.174144",
    "MEAN_MOTION": 15.39426335,
    "ECCENTRICITY": 0.0008427,
    "INCLINATION": 97.3593,
    "RA_OF_ASC_NODE": 354.0355,
    "ARG_OF_PERICENTER": 310.1675,
    "MEAN_ANOMALY": 49.8832,
    "EPHEMERIS_TYPE": 0,
    "CLASSIFICATION_TYPE": "U",
    "NORAD_CAT_ID": 61765,
    "ELEMENT_SET_NO": 999,
    "REV_AT_EPOCH": 7143,
    "BSTAR": 0.0010121,
    "MEAN_MOTION_DOT": 0.00039746,
    "MEAN_MOTION_DDOT": 0
  },
  {
    "OBJECT_NAME": "RUZAEVKA 390 (RS44S)",
    "OBJECT_ID": "2024-199AH",
    "EPOCH": "2025-05-04T04:31:06.235968",
    "MEAN_MOTION": 15.38318336,
    "ECCENTRICITY": 0.0008528,
    "INCLINATION": 97.3594,
    "RA_OF_ASC_NODE": 353.9,
    "ARG_OF_PERICENTER": 310.6297,
    "MEAN_ANOMALY": 49.4206,
    "EPHEMERIS_TYPE": 0,
    "CLASSIFICATION_TYPE": "U",
    "NORAD_CAT_ID": 61766,
    "ELEMENT_SET_NO": 999,
    "REV_AT_EPOCH": 7142,
    "BSTAR": 0.00096313,
    "MEAN_MOTION_DOT": 0.00036463,
    "MEAN_MOTION_DDOT": 0
  },
  {
    "OBJECT_NAME": "HYPERVIEW 1G (RS66S)",
    "OBJECT_ID": "2024-199AP",
    "EPOCH": "2025-05-04T05:30:53.574336",
    "MEAN_MOTION": 15.34000982,
    "ECCENTRICITY": 0.0012536,
    "INCLINATION": 97.3589,
    "RA_OF_ASC_NODE": 353.1924,
    "ARG_OF_PERICENTER": 329.473,
    "MEAN_ANOMALY": 30.5782,
    "EPHEMERIS_TYPE": 0,
    "CLASSIFICATION_TYPE": "U",
    "NORAD_CAT_ID": 61772,
    "ELEMENT_SET_NO": 999,
    "REV_AT_EPOCH": 7138,
    "BSTAR": 0.00079019,
    "MEAN_MOTION_DOT": 0.00026036,
    "MEAN_MOTION_DDOT": 0
  },
  {
    "OBJECT_NAME": "ALTAIR (RS65S)",
    "OBJECT_ID": "2024-199AW",
    "EPOCH": "2025-05-04T05:01:38.614080",
    "MEAN_MOTION": 15.28328193,
    "ECCENTRICITY": 0.0014629,
    "INCLINATION": 97.3611,
    "RA_OF_ASC_NODE": 352.4925,
    "ARG_OF_PERICENTER": 332.6529,
    "MEAN_ANOMALY": 27.3939,
    "EPHEMERIS_TYPE": 0,
    "CLASSIFICATION_TYPE": "U",
    "NORAD_CAT_ID": 61779,
    "ELEMENT_SET_NO": 999,
    "REV_AT_EPOCH": 7448,
    "BSTAR": 0.00041682,
    "MEAN_MOTION_DOT": 0.00011467,
    "MEAN_MOTION_DDOT": 0
  },
  {
    "OBJECT_NAME": "ASRTU-1 (AO-123)",
    "OBJECT_ID": "2024-199AY",
    "EPOCH": "2025-05-04T04:07:29.729568",
    "MEAN_MOTION": 15.27853993,
    "ECCENTRICITY": 0.0014975,
    "INCLINATION": 97.36,
    "RA_OF_ASC_NODE": 352.3808,
    "ARG_OF_PERICENTER": 332.9224,
    "MEAN_ANOMALY": 27.1233,
    "EPHEMERIS_TYPE": 0,
    "CLASSIFICATION_TYPE": "U",
    "NORAD_CAT_ID": 61781,
    "ELEMENT_SET_NO": 999,
    "REV_AT_EPOCH": 7132,
    "BSTAR": 0.0003534,
    "MEAN_MOTION_DOT": 9.57e-05,
    "MEAN_MOTION_DDOT": 0
  },
  {
    "OBJECT_NAME": "TUSUR GO (RS78S)",
    "OBJECT_ID": "2024-199AZ",
    "EPOCH": "2025-05-04T03:59:21.240384",
    "MEAN_MOTION": 15.34852484,
    "ECCENTRICITY": 0.0012931,
    "INCLINATION": 97.3584,
    "RA_OF_ASC_NODE": 353.1248,
    "ARG_OF_PERICENTER": 329.2677,
    "MEAN_ANOMALY": 30.7808,
    "EPHEMERIS_TYPE": 0,
    "CLASSIFICATION_TYPE": "U",
    "NORAD_CAT_ID": 61782,
    "ELEMENT_SET_NO": 999,
    "REV_AT_EPOCH": 7137,
    "BSTAR": 0.00091614,
    "MEAN_MOTION_DOT": 0.0003105,
    "MEAN_MOTION_DDOT": 0
  },
  {
    "OBJECT_NAME": "SAMSAT-IONOSPHERE (RS75S)",
    "OBJECT_ID": "2024-199BB",
    "EPOCH": "2025-05-04T05:04:19.504704",
    "MEAN_MOTION": 15.32224044,
    "ECCENTRICITY": 0.001384,
    "INCLINATION": 97.3595,
    "RA_OF_ASC_NODE": 352.9253,
    "ARG_OF_PERICENTER": 330.4054,
    "MEAN_ANOMALY": 29.6403,
    "EPHEMERIS_TYPE": 0,
    "CLASSIFICATION_TYPE": "U",
    "NORAD_CAT_ID": 61784,
    "ELEMENT_SET_NO": 999,
    "REV_AT_EPOCH": 7451,
    "BSTAR": 0.00066012,
    "MEAN_MOTION_DOT": 0.00020552,
    "MEAN_MOTION_DDOT": 0
  },
  {
    "OBJECT_NAME": "RTU MIREA 1 (RS51S)",
    "OBJECT_ID": "2024-199BC",
    "EPOCH": "2025-05-04T04:38:04.503552",
    "MEAN_MOTION": 15.32599589,
    "ECCENTRICITY": 0.0013579,
    "INCLINATION": 97.3593,
    "RA_OF_ASC_NODE": 352.948,
    "ARG_OF_PERICENTER": 329.7767,
    "MEAN_ANOMALY": 30.269,
    "EPHEMERIS_TYPE": 0,
    "CLASSIFICATION_TYPE": "U",
    "NORAD_CAT_ID": 61785,
    "ELEMENT_SET_NO": 999,
    "REV_AT_EPOCH": 7136,
    "BSTAR": 0.00072956,
    "MEAN_MOTION_DOT": 0.00022995,
    "MEAN_MOTION_DDOT": 0
  },
  {
    "OBJECT_NAME": "HADES-R",
    "OBJECT_ID": "2025-009CK",
    "EPOCH": "2025-05-03T17:41:57.899616",
    "MEAN_MOTION": 15.26542062,
    "ECCENTRICITY": 0.000399,
    "INCLINATION": 97.4094,
    "RA_OF_ASC_NODE": 204.7588,
    "ARG_OF_PERICENTER": 195.2569,
    "MEAN_ANOMALY": 164.855,
    "EPHEMERIS_TYPE": 0,
    "CLASSIFICATION_TYPE": "U",
    "NORAD_CAT_ID": 62690,
    "ELEMENT_SET_NO": 999,
    "REV_AT_EPOCH": 1652,
    "BSTAR": 0.0019798,
    "MEAN_MOTION_DOT": 0.00051989,
    "MEAN_MOTION_DDOT": 0
  }
]